OBJECT_NAME,OBJECT_ID,EPOCH,MEAN_MOTION,ECCENTRICITY,INCLINATION,RA_OF_ASC_NODE,ARG_OF_PERICENTER,MEAN_ANOMALY,EPHEMERIS_TYPE,CLASSIFICATION_TYPE,NORAD_CAT_ID,ELEMENT_SET_NO,REV_AT_EPOCH,BSTAR,MEAN_MOTION_DOT,MEAN_MOTION_DDOT
SATELIOT_3,2024-149CN,2025-05-19T04:32:24.904896,14.96419847,.0007091,97.7159,216.7698,334.6591,25.4282,0,U,60552,999,4113,.18749E-3,.2068E-4,0
BRO-15,2024-149CP,2025-05-19T10:41:16.605312,14.95070503,.0007297,97.7151,216.6823,333.9326,26.1526,0,U,60553,999,4115,.90553E-4,.935E-5,0
UM5-RIBAT,2024-149CQ,2025-05-19T11:10:23.867328,14.97672955,.0007264,97.7095,217.1470,317.4903,42.5756,0,U,60554,999,4119,.27316E-3,.3141E-4,0
UM5-EOSAT,2024-149CR,2025-05-19T06:39:54.520704,14.98087428,.0006953,97.7159,217.3144,327.0204,33.0584,0,U,60555,999,4117,.31293E-3,.3646E-4,0
KANYINI,2024-149CS,2025-05-19T11:21:49.932576,15.29327544,.0002932,97.4079,217.7879,169.6226,190.5075,0,U,60556,999,4194,.57468E-3,.16292E-3,0
TROOP-F2,2024-149CT,2025-05-19T11:00:27.553536,15.35236512,.0004795,97.4012,218.9393,186.0301,174.0885,0,U,60557,999,4203,.74794E-3,.25569E-3,0
FLOCK 4BE-35,2024-149CU,2025-05-19T04:34:48.836064,15.27510643,.0002134,97.4096,217.7734,228.6353,131.4703,0,U,60558,999,4191,.33011E-3,.8813E-4,0
FLOCK 4BE-5,2024-149CV,2025-05-19T18:48:48.648960,15.27366353,.0002634,97.4149,218.4617,236.1738,123.9251,0,U,60559,999,4200,.2876E-3,.7634E-4,0
FLOCK 4BE-12,2024-149CW,2025-05-19T11:18:55.876320,15.28751737,.0003617,97.4058,218.1461,243.3817,116.7053,0,U,60560,999,4197,.34882E-3,.9679E-4,0
FLOCK 4BE-3,2024-149CX,2025-05-19T18:35:05.264736,15.28345101,.0004571,97.4034,218.2919,237.8686,122.2111,0,U,60561,999,4201,.34832E-3,.9546E-4,0
HYPERFIELD-1A,2024-149CY,2025-05-19T05:09:51.070752,15.24890624,.0004224,97.4124,217.3421,258.6881,101.3882,0,U,60562,999,4188,.26542E-3,.6531E-4,0
FLOCK 4BE-19,2024-149CZ,2025-05-19T11:18:21.591936,15.29388732,.0004114,97.4061,218.3135,246.8146,113.2661,0,U,60563,999,4198,.37105E-3,.10505E-3,0
PICO-02C023,2024-149DA,2025-05-19T04:29:15.222336,15.16409083,.0002774,97.7059,220.1820,120.5910,239.5597,0,U,60564,999,4136,.16516E-2,.32141E-3,0
PTD-4 (LISA-T),2024-149DB,2025-05-19T18:13:38.813664,15.05738456,.0002862,97.7248,219.1834,324.2323,35.8711,0,U,60565,999,4132,.94337E-3,.13609E-3,0
PICO-02G027,2024-149DC,2025-05-19T11:18:28.568736,15.17096255,.0002723,97.7086,220.6416,126.3404,233.8080,0,U,60566,999,4142,.1651E-2,.32767E-3,0
PICO-02F026,2024-149DD,2025-05-19T04:32:21.848064,15.17181100,.0002274,97.7143,220.5143,141.3057,218.8339,0,U,60567,999,4137,.16999E-2,.33826E-3,0
PICO-02I029,2024-149DE,2025-05-19T11:25:10.840224,15.16997025,.0002663,97.7087,220.6310,126.0125,234.1355,0,U,60568,999,4141,.16785E-2,.33222E-3,0
PICO-02D024,2024-149DF,2025-05-19T10:50:53.664000,15.17254849,.0002345,97.7141,220.7805,137.8178,222.3235,0,U,60569,999,4141,.17469E-2,.34841E-3,0
PICO-02H028,2024-149DG,2025-05-19T11:34:20.188704,15.16902488,.0002707,97.7085,220.6122,123.5634,236.5857,0,U,60570,999,4141,.16726E-2,.33015E-3,0
PICO-02B022,2024-149DH,2025-05-19T11:45:47.495520,15.21650137,.00052,97.7125,221.4818,195.1872,164.9208,0,U,60571,999,4146,.20847E-2,.47321E-3,0
PICO-02E025,2024-149DJ,2025-05-19T04:15:09.641952,15.19317483,.0003803,97.7224,221.0341,189.0695,171.0471,0,U,60572,999,4139,.18787E-2,.39794E-3,0
ION SCV-012,2024-149DK,2025-05-19T18:34:18.276096,14.93716412,.0002484,97.7154,216.4459,340.5881,19.5244,0,U,60573,999,4116,.13178E-3,.1338E-4,0
GNOMES-5,2024-149DL,2025-05-19T18:07:51.001824,14.97136861,.0001376,97.7166,217.3050,1.6521,358.4706,0,U,60574,999,4121,.3678E-3,.419E-4,0
HAWK-10C,2024-149DM,2025-05-19T10:49:01.302528,14.94755375,.0001972,97.7094,216.1848,309.9996,50.1051,0,U,60575,999,4113,.14778E-3,.1549E-4,0
LEMUR-2-AHMED-ASRAR,2024-149DN,2025-05-19T11:25:57.523008,15.02705785,.0001277,97.7294,218.3342,183.5422,176.5794,0,U,60576,999,4125,.69365E-3,.9206E-4,0
LEMUR-2-LLOYD,2024-149DP,2025-05-19T04:10:55.025472,15.00153921,.0004373,97.7217,217.1088,37.7707,322.3822,0,U,60577,999,4115,.7071E-3,.8776E-4,0
LEMUR-2-SQUIRRELCOMM,2024-149DQ,2025-05-19T04:28:52.000608,15.00684116,.0006166,97.7126,217.4570,266.5622,93.4897,0,U,60578,999,4118,.5449E-3,.6843E-4,0
LEMUR-2-SIERRINI,2024-149DR,2025-05-19T11:38:09.949632,15.01038626,.0005909,97.7176,217.7127,49.2870,310.8866,0,U,60579,999,4121,.74805E-3,.9509E-4,0
SEDNA-1,2024-149DS,2025-05-19T11:11:49.768800,15.00570715,.0006138,97.7080,217.7643,245.8145,114.2437,0,U,60580,999,4122,.50645E-3,.6337E-4,0
STARLINK-31844,2024-150A,2025-05-19T13:32:24.211968,15.30177314,.0001309,53.1610,232.9186,83.3632,276.7518,0,U,60583,999,4301,-.33313E-4,-.1345E-4,0
