SATELIOT_3              
1 60552U 24149CN  25139.18917714  .00002068  00000+0  18749-3 0  9993
2 60552  97.7159 216.7698 0007091 334.6591  25.4282 14.96419847 41130
BRO-15                  
1 60553U 24149CP  25139.44533108  .00000935  00000+0  90553-4 0  9999
2 60553  97.7151 216.6823 0007297 333.9326  26.1526 14.95070503 41150
UM5-RIBAT               
1 60554U 24149CQ  25139.46555402  .00003141  00000+0  27316-3 0  9991
2 60554  97.7095 217.1470 0007264 317.4903  42.5756 14.97672955 41196
UM5-EOSAT               
1 60555U 24149CR  25139.27771436  .00003646  00000+0  31293-3 0  9997
2 60555  97.7159 217.3144 0006953 327.0204  33.0584 14.98087428 41171
KANYINI                 
1 60556U 24149CS  25139.47349459  .00016292  00000+0  57468-3 0  9999
2 60556  97.4079 217.7879 0002932 169.6226 190.5075 15.29327544 41946
TROOP-F2                
1 60557U 24149CT  25139.45865224  .00025569  00000+0  74794-3 0  9999
2 60557  97.4012 218.9393 0004795 186.0301 174.0885 15.35236512 42032
FLOCK 4BE-35            
1 60558U 24149CU  25139.19084301  .00008813  00000+0  33011-3 0  9990
2 60558  97.4096 217.7734 0002134 228.6353 131.4703 15.27510643 41919
FLOCK 4BE-5             
1 60559U 24149CV  25139.78389640  .00007634  00000+0  28760-3 0  9995
2 60559  97.4149 218.4617 0002634 236.1738 123.9251 15.27366353 42005
FLOCK 4BE-12            
1 60560U 24149CW  25139.47148005  .00009679  00000+0  34882-3 0  9994
2 60560  97.4058 218.1461 0003617 243.3817 116.7053 15.28751737 41970
FLOCK 4BE-3             
1 60561U 24149CX  25139.77436649  .00009546  00000+0  34832-3 0  9990
2 60561  97.4034 218.2919 0004571 237.8686 122.2111 15.28345101 42013
HYPERFIELD-1A           
1 60562U 24149CY  25139.21517443  .00006531  00000+0  26542-3 0  9992
2 60562  97.4124 217.3421 0004224 258.6881 101.3882 15.24890624 41883
FLOCK 4BE-19            
1 60563U 24149CZ  25139.47108324  .00010505  00000+0  37105-3 0  9998
2 60563  97.4061 218.3135 0004114 246.8146 113.2661 15.29388732 41983
PICO-02C023             
1 60564U 24149DA  25139.18698174  .00032141  00000+0  16516-2 0  9996
2 60564  97.7059 220.1820 0002774 120.5910 239.5597 15.16409083 41364
PTD-4 (LISA-T)          
1 60565U 24149DB  25139.75947701  .00013609  00000+0  94337-3 0  9999
2 60565  97.7248 219.1834 0002862 324.2323  35.8711 15.05738456 41325
PICO-02G027             
1 60566U 24149DC  25139.47116399  .00032767  00000+0  16510-2 0  9992
2 60566  97.7086 220.6416 0002723 126.3404 233.8080 15.17096255 41423
PICO-02F026             
1 60567U 24149DD  25139.18914176  .00033826  00000+0  16999-2 0  9998
2 60567  97.7143 220.5143 0002274 141.3057 218.8339 15.17181100 41374
PICO-02I029             
1 60568U 24149DE  25139.47581991  .00033222  00000+0  16785-2 0  9999
2 60568  97.7087 220.6310 0002663 126.0125 234.1355 15.16997025 41411
PICO-02D024             
1 60569U 24149DF  25139.45201000  .00034841  00000+0  17469-2 0  9996
2 60569  97.7141 220.7805 0002345 137.8178 222.3235 15.17254849 41415
PICO-02H028             
1 60570U 24149DG  25139.48217811  .00033015  00000+0  16726-2 0  9995
2 60570  97.7085 220.6122 0002707 123.5634 236.5857 15.16902488 41411
PICO-02B022             
1 60571U 24149DH  25139.49013305  .00047321  00000+0  20847-2 0  9993
2 60571  97.7125 221.4818 0005200 195.1872 164.9208 15.21650137 41464
PICO-02E025             
1 60572U 24149DJ  25139.17719493  .00039794  00000+0  18787-2 0  9995
2 60572  97.7224 221.0341 0003803 189.0695 171.0471 15.19317483 41398
ION SCV-012             
1 60573U 24149DK  25139.77382264  .00001338  00000+0  13178-3 0  9997
2 60573  97.7154 216.4459 0002484 340.5881  19.5244 14.93716412 41169
GNOMES-5                
1 60574U 24149DL  25139.75545141  .00004190  00000+0  36780-3 0  9994
2 60574  97.7166 217.3050 0001376   1.6521 358.4706 14.97136861 41217
HAWK-10C                
1 60575U 24149DM  25139.45070952  .00001549  00000+0  14778-3 0  9993
2 60575  97.7094 216.1848 0001972 309.9996  50.1051 14.94755375 41136
LEMUR-2-AHMED-ASRAR     
1 60576U 24149DN  25139.47636022  .00009206  00000+0  69365-3 0  9992
2 60576  97.7294 218.3342 0001277 183.5422 176.5794 15.02705785 41250
LEMUR-2-LLOYD           
1 60577U 24149DP  25139.17424798  .00008776  00000+0  70710-3 0  9992
2 60577  97.7217 217.1088 0004373  37.7707 322.3822 15.00153921 41155
LEMUR-2-SQUIRRELCOMM    
1 60578U 24149DQ  25139.18671297  .00006843  00000+0  54490-3 0  9992
2 60578  97.7126 217.4570 0006166 266.5622  93.4897 15.00684116 41180
LEMUR-2-SIERRINI        
1 60579U 24149DR  25139.48483738  .00009509  00000+0  74805-3 0  9991
2 60579  97.7176 217.7127 0005909  49.2870 310.8866 15.01038626 41218
SEDNA-1                 
1 60580U 24149DS  25139.46654825  .00006337  00000+0  50645-3 0  9990
2 60580  97.7080 217.7643 0006138 245.8145 114.2437 15.00570715 41221
STARLINK-31844          
1 60583U 24150A   25139.56416912 -.00001345  00000+0 -33313-4 0  9999
2 60583  53.1610 232.9186 0001309  83.3632 276.7518 15.30177314 43015
